{
    "links": {
        "self": "http://www.neowsapp.com/rest/v1/neo/54016239?api_key=iIulBulltgU6a56xZRHN4H3l9WmuAYTsLGpBGhQ2"
    },
    "id": "54016239",
    "neo_reference_id": "54016239",
    "name": "(2020 FW1)",
    "designation": "2020 FW1",
    "nasa_jpl_url": "http://ssd.jpl.nasa.gov/sbdb.cgi?sstr=54016239",
    "absolute_magnitude_h": 26.89,
    "estimated_diameter": {
        "kilometers": {
            "estimated_diameter_min": 0.011131533,
            "estimated_diameter_max": 0.0248908644
        },
        "meters": {
            "estimated_diameter_min": 11.1315329608,
            "estimated_diameter_max": 24.8908643942
        },
        "miles": {
            "estimated_diameter_min": 0.0069168118,
            "estimated_diameter_max": 0.0154664613
        },
        "feet": {
            "estimated_diameter_min": 36.5207785992,
            "estimated_diameter_max": 81.6629435391
        }
    },
    "is_potentially_hazardous_asteroid": false,
    "close_approach_data": [
        {
            "close_approach_date": "2020-03-21",
            "close_approach_date_full": "2020-Mar-21 01:05",
            "epoch_date_close_approach": 1584752700000,
            "relative_velocity": {
                "kilometers_per_second": "1.9232149871",
                "kilometers_per_hour": "6923.5739536161",
                "miles_per_hour": "4302.0396046789"
            },
            "miss_distance": {
                "astronomical": "0.0874692676",
                "lunar": "34.0255450964",
                "kilometers": "13085216.123420012",
                "miles": "8130776.2699876856"
            },
            "orbiting_body": "Earth"
        }
    ],
    "orbital_data": {
        "orbit_id": "1",
        "orbit_determination_date": "2020-03-18 18:12:08",
        "first_observation_date": "2020-03-16",
        "last_observation_date": "2020-03-18",
        "data_arc_in_days": 2,
        "observations_used": 14,
        "orbit_uncertainty": "8",
        "minimum_orbit_intersection": ".0409057",
        "jupiter_tisserand_invariant": "5.790",
        "epoch_osculation": "2458925.5",
        "eccentricity": ".01678242184805017",
        "semi_major_axis": "1.065064506937473",
        "inclination": "2.267050625922024",
        "ascending_node_longitude": ".4923107402682113",
        "orbital_period": "401.4785020516862",
        "perihelion_distance": "1.047190145086663",
        "perihelion_argument": "351.6351351114319",
        "aphelion_distance": "1.082938868788283",
        "perihelion_time": "2459121.291335021141",
        "mean_anomaly": "184.4367251361903",
        "mean_motion": ".896685621173444",
        "equinox": "J2000",
        "orbit_class": {
            "orbit_class_type": "AMO",
            "orbit_class_description": "Near-Earth asteroid orbits similar to that of 1221 Amor",
            "orbit_class_range": "1.017 AU < q (perihelion) < 1.3 AU"
        }
    },
    "is_sentry_object": false
}